{"type": "FeatureCollection", "features": [ {"type": "Feature", "properties": {"norad_id": 66561, "name": "STARLINK-35305", "group": "last-30-days", "lat": 29.844815632427956, "lon": -38.02495067624744, "alt_km": 337.06622179908845, "timestamp": "2025-12-02T19:35:49.343954+00:00", "meta": {"OBJECT_NAME": "STARLINK-35305", "OBJECT_ID": "2025-268E", "EPOCH": "2025-12-02T12:00:05.998752", "MEAN_MOTION": 15.77398062, "ECCENTRICITY": 0.0001561, "INCLINATION": 42.9974, "RA_OF_ASC_NODE": 181.9088, "ARG_OF_PERICENTER": 272.38, "MEAN_ANOMALY": 221.9627, "EPHEMERIS_TYPE": 0, "CLASSIFICATION_TYPE": "U", "NORAD_CAT_ID": 66561, "ELEMENT_SET_NO": 999, "REV_AT_EPOCH": 297, "BSTAR": -0.010178, "MEAN_MOTION_DOT": -0.01524111, "MEAN_MOTION_DDOT": 0}, "tle": {"line1": "1 66561U 25268E   25336.50006943 -.01524111  00000+0 -10178-1 0  9997", "line2": "2 66561  42.9974 181.9088 0001561 272.3800 221.9627 15.77398062  2976"}}, "geometry": {"type": "Point", "coordinates": [-38.02495067624744, 29.844815632427956]}}, {"type": "Feature", "properties": {"norad_id": 66562, "name": "STARLINK-35579", "group": "last-30-days", "lat": 30.879175931867696, "lon": -39.93854492573693, "alt_km": 336.83760392888234, "timestamp": "2025-12-02T19:35:49.343964+00:00", "meta": {"OBJECT_NAME": "STARLINK-35579", "OBJECT_ID": "2025-268F", "EPOCH": "2025-12-02T12:00:05.998752", "MEAN_MOTION": 15.77412926, "ECCENTRICITY": 0.0001557, "INCLINATION": 42.9973, "RA_OF_ASC_NODE": 181.9134, "ARG_OF_PERICENTER": 270.5132, "MEAN_ANOMALY": 221.8602, "EPHEMERIS_TYPE": 0, "CLASSIFICATION_TYPE": "U", "NORAD_CAT_ID": 66562, "ELEMENT_SET_NO": 999, "REV_AT_EPOCH": 302, "BSTAR": -0.010124, "MEAN_MOTION_DOT": -0.01517965, "MEAN_MOTION_DDOT": 0}, "tle": {"line1": "1 66562U 25268F   25336.50006943 -.01517965  00000+0 -10124-1 0  9998", "line2": "2 66562  42.9973 181.9134 0001557 270.5132 221.8602 15.77412926  3026"}}, "geometry": {"type": "Point", "coordinates": [-39.93854492573693, 30.879175931867696]}}, {"type": "Feature", "properties": {"norad_id": 66563, "name": "STARLINK-35437", "group": "last-30-days", "lat": 28.765757243923744, "lon": -36.12207678632248, "alt_km": 337.23103800345234, "timestamp": "2025-12-02T19:35:49.343976+00:00", "meta": {"OBJECT_NAME": "STARLINK-35437", "OBJECT_ID": "2025-268G", "EPOCH": "2025-12-02T12:00:05.998752", "MEAN_MOTION": 15.77361185, "ECCENTRICITY": 0.0001545, "INCLINATION": 42.9973, "RA_OF_ASC_NODE": 181.9032, "ARG_OF_PERICENTER": 265.7303, "MEAN_ANOMALY": 230.6432, "EPHEMERIS_TYPE": 0, "CLASSIFICATION_TYPE": "U", "NORAD_CAT_ID": 66563, "ELEMENT_SET_NO": 999, "REV_AT_EPOCH": 302, "BSTAR": -0.010282, "MEAN_MOTION_DOT": -0.0153557, "MEAN_MOTION_DDOT": 0}, "tle": {"line1": "1 66563U 25268G   25336.50006943 -.01535570  00000+0 -10282-1 0  9996", "line2": "2 66563  42.9973 181.9032 0001545 265.7303 230.6432 15.77361185  3026"}}, "geometry": {"type": "Point", "coordinates": [-36.12207678632248, 28.765757243923744]}}, {"type": "Feature", "properties": {"norad_id": 66564, "name": "STARLINK-35358", "group": "last-30-days", "lat": 27.682710925741908, "lon": -34.2948985875347, "alt_km": 337.5164325921596, "timestamp": "2025-12-02T19:35:49.343989+00:00", "meta": {"OBJECT_NAME": "STARLINK-35358", "OBJECT_ID": "2025-268H", "EPOCH": "2025-12-02T12:00:05.998752", "MEAN_MOTION": 15.773452, "ECCENTRICITY": 0.0001624, "INCLINATION": 42.9971, "RA_OF_ASC_NODE": 181.8985, "ARG_OF_PERICENTER": 268.9096, "MEAN_ANOMALY": 229.4244, "EPHEMERIS_TYPE": 0, "CLASSIFICATION_TYPE": "U", "NORAD_CAT_ID": 66564, "ELEMENT_SET_NO": 999, "REV_AT_EPOCH": 297, "BSTAR": -0.010295, "MEAN_MOTION_DOT": -0.0153629, "MEAN_MOTION_DDOT": 0}, "tle": {"line1": "1 66564U 25268H   25336.50006943 -.01536290  00000+0 -10295-1 0  9991", "line2": "2 66564  42.9971 181.8985 0001624 268.9096 229.4244 15.77345200  2973"}}, "geometry": {"type": "Point", "coordinates": [-34.2948985875347, 27.682710925741908]}}, {"type": "Feature", "properties": {"norad_id": 66565, "name": "STARLINK-35893", "group": "last-30-days", "lat": 26.569083001098434, "lon": -32.492717432889144, "alt_km": 337.7417179308577, "timestamp": "2025-12-02T19:35:49.343999+00:00", "meta": {"OBJECT_NAME": "STARLINK-35893", "OBJECT_ID": "2025-268J", "EPOCH": "2025-12-02T12:00:05.998752", "MEAN_MOTION": 15.77329744, "ECCENTRICITY": 0.0001578, "INCLINATION": 42.9974, "RA_OF_ASC_NODE": 181.8934, "ARG_OF_PERICENTER": 269.9205, "MEAN_ANOMALY": 230.3922, "EPHEMERIS_TYPE": 0, "CLASSIFICATION_TYPE": "U", "NORAD_CAT_ID": 66565, "ELEMENT_SET_NO": 999, "REV_AT_EPOCH": 302, "BSTAR": -0.010418, "MEAN_MOTION_DOT": -0.01551317, "MEAN_MOTION_DDOT": 0}, "tle": {"line1": "1 66565U 25268J   25336.50006943 -.01551317  00000+0 -10418-1 0  9996", "line2": "2 66565  42.9974 181.8934 0001578 269.9205 230.3922 15.77329744  3028"}}, "geometry": {"type": "Point", "coordinates": [-32.492717432889144, 26.569083001098434]}}, {"type": "Feature", "properties": {"norad_id": 66566, "name": "STARLINK-35871", "group": "last-30-days", "lat": 25.399359177403372, "lon": -30.674070024310456, "alt_km": 338.0142475444418, "timestamp": "2025-12-02T19:35:49.344009+00:00", "meta": {"OBJECT_NAME": "STARLINK-35871", "OBJECT_ID": "2025-268K", "EPOCH": "2025-12-02T12:00:05.998752", "MEAN_MOTION": 15.77199199, "ECCENTRICITY": 0.0001721, "INCLINATION": 42.9976, "RA_OF_ASC_NODE": 181.8883, "ARG_OF_PERICENTER": 268.6329, "MEAN_ANOMALY": 233.7844, "EPHEMERIS_TYPE": 0, "CLASSIFICATION_TYPE": "U", "NORAD_CAT_ID": 66566, "ELEMENT_SET_NO": 999, "REV_AT_EPOCH": 302, "BSTAR": -0.0094961, "MEAN_MOTION_DOT": -0.014226, "MEAN_MOTION_DDOT": 0}, "tle": {"line1": "1 66566U 25268K   25336.50006943 -.01422600  00000+0 -94961-2 0  9995", "line2": "2 66566  42.9976 181.8883 0001721 268.6329 233.7844 15.77199199  3026"}}, "geometry": {"type": "Point", "coordinates": [-30.674070024310456, 25.399359177403372]}}, {"type": "Feature", "properties": {"norad_id": 66567, "name": "STARLINK-35825", "group": "last-30-days", "lat": 24.224255181834124, "lon": -28.915880227326344, "alt_km": 338.30587628184, "timestamp": "2025-12-02T19:35:49.344019+00:00", "meta": {"OBJECT_NAME": "STARLINK-35825", "OBJECT_ID": "2025-268L", "EPOCH": "2025-12-02T12:00:05.998752", "MEAN_MOTION": 15.77140396, "ECCENTRICITY": 0.0001665, "INCLINATION": 42.9974, "RA_OF_ASC_NODE": 181.8832, "ARG_OF_PERICENTER": 271.0314, "MEAN_ANOMALY": 233.4257, "EPHEMERIS_TYPE": 0, "CLASSIFICATION_TYPE": "U", "NORAD_CAT_ID": 66567, "ELEMENT_SET_NO": 999, "REV_AT_EPOCH": 302, "BSTAR": -0.0093486, "MEAN_MOTION_DOT": -0.01399656, "MEAN_MOTION_DDOT": 0}, "tle": {"line1": "1 66567U 25268L   25336.50006943 -.01399656  00000+0 -93486-2 0  9991", "line2": "2 66567  42.9974 181.8832 0001665 271.0314 233.4257 15.77140396  3028"}}, "geometry": {"type": "Point", "coordinates": [-28.915880227326344, 24.224255181834124]}}, {"type": "Feature", "properties": {"norad_id": 66568, "name": "STARLINK-35803", "group": "last-30-days", "lat": 23.022630221421153, "lon": -27.181016172858715, "alt_km": 338.7645521016275, "timestamp": "2025-12-02T19:35:49.344029+00:00", "meta": {"OBJECT_NAME": "STARLINK-35803", "OBJECT_ID": "2025-268M", "EPOCH": "2025-12-02T12:00:05.998752", "MEAN_MOTION": 15.77074588, "ECCENTRICITY": 0.0001536, "INCLINATION": 42.9971, "RA_OF_ASC_NODE": 181.8779, "ARG_OF_PERICENTER": 276.3634, "MEAN_ANOMALY": 230.176, "EPHEMERIS_TYPE": 0, "CLASSIFICATION_TYPE": "U", "NORAD_CAT_ID": 66568, "ELEMENT_SET_NO": 999, "REV_AT_EPOCH": 302, "BSTAR": -0.0096263, "MEAN_MOTION_DOT": -0.01432596, "MEAN_MOTION_DDOT": 0}, "tle": {"line1": "1 66568U 25268M   25336.50006943 -.01432596  00000+0 -96263-2 0  9999", "line2": "2 66568  42.9971 181.8779 0001536 276.3634 230.1760 15.77074588  3028"}}, "geometry": {"type": "Point", "coordinates": [-27.181016172858715, 23.022630221421153]}}, {"type": "Feature", "properties": {"norad_id": 66569, "name": "STARLINK-35835", "group": "last-30-days", "lat": 21.832318745720162, "lon": -25.517963701283765, "alt_km": 338.99546608558194, "timestamp": "2025-12-02T19:35:49.344039+00:00", "meta": {"OBJECT_NAME": "STARLINK-35835", "OBJECT_ID": "2025-268N", "EPOCH": "2025-12-02T12:00:05.998752", "MEAN_MOTION": 15.77083351, "ECCENTRICITY": 0.0001709, "INCLINATION": 42.9973, "RA_OF_ASC_NODE": 181.8728, "ARG_OF_PERICENTER": 271.3874, "MEAN_ANOMALY": 237.1131, "EPHEMERIS_TYPE": 0, "CLASSIFICATION_TYPE": "U", "NORAD_CAT_ID": 66569, "ELEMENT_SET_NO": 999, "REV_AT_EPOCH": 302, "BSTAR": -0.0099878, "MEAN_MOTION_DOT": -0.0148062, "MEAN_MOTION_DDOT": 0}, "tle": {"line1": "1 66569U 25268N   25336.50006943 -.01480620  00000+0 -99878-2 0  9996", "line2": "2 66569  42.9973 181.8728 0001709 271.3874 237.1131 15.77083351  3025"}}, "geometry": {"type": "Point", "coordinates": [-25.517963701283765, 21.832318745720162]}}, {"type": "Feature", "properties": {"norad_id": 66570, "name": "STARLINK-35834", "group": "last-30-days", "lat": 20.597573466638643, "lon": -23.844976900001473, "alt_km": 339.3029024840016, "timestamp": "2025-12-02T19:35:49.344051+00:00", "meta": {"OBJECT_NAME": "STARLINK-35834", "OBJECT_ID": "2025-268P", "EPOCH": "2025-12-02T12:00:05.998752", "MEAN_MOTION": 15.77033772, "ECCENTRICITY": 0.0001528, "INCLINATION": 42.9973, "RA_OF_ASC_NODE": 181.868, "ARG_OF_PERICENTER": 272.0834, "MEAN_ANOMALY": 238.4756, "EPHEMERIS_TYPE": 0, "CLASSIFICATION_TYPE": "U", "NORAD_CAT_ID": 66570, "ELEMENT_SET_NO": 999, "REV_AT_EPOCH": 302, "BSTAR": -0.010221, "MEAN_MOTION_DOT": -0.01507833, "MEAN_MOTION_DDOT": 0}, "tle": {"line1": "1 66570U 25268P   25336.50006943 -.01507833  00000+0 -10221-1 0  9998", "line2": "2 66570  42.9973 181.8680 0001528 272.0834 238.4756 15.77033772  3026"}}, "geometry": {"type": "Point", "coordinates": [-23.844976900001473, 20.597573466638643]}}]}